TOMORROW-S1             
1 60479U 24149M   26068.72470524  .00008620  00000+0  28856-3 0  9996
2 60479  97.3791 149.6044 0001819 207.2040 152.9106 15.31198362 86867
STARLINK-34861          
1 66368U 25254W   26068.73018316  .00030052  00000+0  10224-2 0  9998
2 66368  53.1574 229.9647 0000928  64.8458 295.2639 15.30208665 19012
